{"type": "FeatureCollection", "features": [ {"type": "Feature", "properties": {"norad_id": 30320, "name": "FENGYUN 1C DEB", "group": "fengyun-1c-debris", "lat": -80.79410851803921, "lon": 132.7003556433929, "alt_km": 849.8531392343293, "timestamp": "2025-12-12T09:49:09.007025+00:00", "meta": {"OBJECT_NAME": "FENGYUN 1C DEB", "OBJECT_ID": "1999-025AAH", "EPOCH": "2025-12-11T16:05:06.958752", "MEAN_MOTION": 13.98554584, "ECCENTRICITY": 0.00851808, "INCLINATION": 99.1878, "RA_OF_ASC_NODE": 44.9666, "ARG_OF_PERICENTER": 297.5436, "MEAN_ANOMALY": 215.0988, "EPHEMERIS_TYPE": 0, "CLASSIFICATION_TYPE": "U", "NORAD_CAT_ID": 30320, "ELEMENT_SET_NO": 999, "REV_AT_EPOCH": 96392, "BSTAR": 0.00014490292, "MEAN_MOTION_DOT": 1.68e-06, "MEAN_MOTION_DDOT": 0}, "tle": {"line1": "1 30320U 99025AAH 25345.67021943  .00000168  00000+0  14490-3 0  9999", "line2": "2 30320  99.1878  44.9666 0085180 297.5436 215.0988 13.98554584963929"}}, "geometry": {"type": "Point", "coordinates": [132.7003556433929, -80.79410851803921]}}, {"type": "Feature", "properties": {"norad_id": 30321, "name": "FENGYUN 1C DEB", "group": "fengyun-1c-debris", "lat": -56.457095760001295, "lon": -1.2616657814573369, "alt_km": 825.1642669506882, "timestamp": "2025-12-12T09:49:09.007035+00:00", "meta": {"OBJECT_NAME": "FENGYUN 1C DEB", "OBJECT_ID": "1999-025AAJ", "EPOCH": "2025-12-12T00:13:29.782272", "MEAN_MOTION": 14.16639217, "ECCENTRICITY": 0.005994, "INCLINATION": 98.6561, "RA_OF_ASC_NODE": 345.0655, "ARG_OF_PERICENTER": 238.9159, "MEAN_ANOMALY": 185.477, "EPHEMERIS_TYPE": 0, "CLASSIFICATION_TYPE": "U", "NORAD_CAT_ID": 30321, "ELEMENT_SET_NO": 999, "REV_AT_EPOCH": 97533, "BSTAR": 0.00045801, "MEAN_MOTION_DOT": 8.87e-06, "MEAN_MOTION_DDOT": 0}, "tle": {"line1": "1 30321U 99025AAJ 25346.00937248  .00000887  00000+0  45801-3 0  9990", "line2": "2 30321  98.6561 345.0655 0059940 238.9159 185.4770 14.16639217975337"}}, "geometry": {"type": "Point", "coordinates": [-1.2616657814573369, -56.457095760001295]}}, {"type": "Feature", "properties": {"norad_id": 30322, "name": "FENGYUN 1C DEB", "group": "fengyun-1c-debris", "lat": -32.399644653575244, "lon": -150.4978877160836, "alt_km": 851.2077133905295, "timestamp": "2025-12-12T09:49:09.007045+00:00", "meta": {"OBJECT_NAME": "FENGYUN 1C DEB", "OBJECT_ID": "1999-025AAK", "EPOCH": "2025-12-12T01:26:08.308032", "MEAN_MOTION": 14.06092558, "ECCENTRICITY": 0.0126742, "INCLINATION": 98.3984, "RA_OF_ASC_NODE": 203.7985, "ARG_OF_PERICENTER": 255.0824, "MEAN_ANOMALY": 103.6283, "EPHEMERIS_TYPE": 0, "CLASSIFICATION_TYPE": "U", "NORAD_CAT_ID": 30322, "ELEMENT_SET_NO": 999, "REV_AT_EPOCH": 96190, "BSTAR": 0.0020368, "MEAN_MOTION_DOT": 3.557e-05, "MEAN_MOTION_DDOT": 0}, "tle": {"line1": "1 30322U 99025AAK 25346.05981838  .00003557  00000+0  20368-2 0  9997", "line2": "2 30322  98.3984 203.7985 0126742 255.0824 103.6283 14.06092558961903"}}, "geometry": {"type": "Point", "coordinates": [-150.4978877160836, -32.399644653575244]}}, {"type": "Feature", "properties": {"norad_id": 30325, "name": "FENGYUN 1C DEB", "group": "fengyun-1c-debris", "lat": -7.640495259886518, "lon": 6.951462774731431, "alt_km": 867.7858211539588, "timestamp": "2025-12-12T09:49:09.007056+00:00", "meta": {"OBJECT_NAME": "FENGYUN 1C DEB", "OBJECT_ID": "1999-025AAL", "EPOCH": "2025-12-11T06:35:21.171840", "MEAN_MOTION": 14.09103463, "ECCENTRICITY": 0.00152065, "INCLINATION": 98.7332, "RA_OF_ASC_NODE": 4.6704, "ARG_OF_PERICENTER": 257.6386, "MEAN_ANOMALY": 102.3082, "EPHEMERIS_TYPE": 0, "CLASSIFICATION_TYPE": "U", "NORAD_CAT_ID": 30325, "ELEMENT_SET_NO": 999, "REV_AT_EPOCH": 96995, "BSTAR": 0.00020142783, "MEAN_MOTION_DOT": 3.07e-06, "MEAN_MOTION_DDOT": 0}, "tle": {"line1": "1 30325U 99025AAL 25345.27455060  .00000307  00000+0  20143-3 0  9998", "line2": "2 30325  98.7332   4.6704 0015206 257.6386 102.3082 14.09103463969954"}}, "geometry": {"type": "Point", "coordinates": [6.951462774731431, -7.640495259886518]}}, {"type": "Feature", "properties": {"norad_id": 30326, "name": "FENGYUN 1C DEB", "group": "fengyun-1c-debris", "lat": -55.807110318075075, "lon": -113.2947681701282, "alt_km": 946.7538690342544, "timestamp": "2025-12-12T09:49:09.007066+00:00", "meta": {"OBJECT_NAME": "FENGYUN 1C DEB", "OBJECT_ID": "1999-025AAM", "EPOCH": "2025-12-12T03:09:22.637664", "MEAN_MOTION": 13.85474631, "ECCENTRICITY": 0.0142405, "INCLINATION": 98.6542, "RA_OF_ASC_NODE": 233.4954, "ARG_OF_PERICENTER": 32.2194, "MEAN_ANOMALY": 328.7566, "EPHEMERIS_TYPE": 0, "CLASSIFICATION_TYPE": "U", "NORAD_CAT_ID": 30326, "ELEMENT_SET_NO": 999, "REV_AT_EPOCH": 95447, "BSTAR": 0.00027406, "MEAN_MOTION_DOT": 2.99e-06, "MEAN_MOTION_DDOT": 0}, "tle": {"line1": "1 30326U 99025AAM 25346.13151201  .00000299  00000+0  27406-3 0  9994", "line2": "2 30326  98.6542 233.4954 0142405  32.2194 328.7566 13.85474631954475"}}, "geometry": {"type": "Point", "coordinates": [-113.2947681701282, -55.807110318075075]}}, {"type": "Feature", "properties": {"norad_id": 30327, "name": "FENGYUN 1C DEB", "group": "fengyun-1c-debris", "lat": 41.854618137225145, "lon": 68.38341521804126, "alt_km": 744.9724531420998, "timestamp": "2025-12-12T09:49:09.007077+00:00", "meta": {"OBJECT_NAME": "FENGYUN 1C DEB", "OBJECT_ID": "1999-025AAN", "EPOCH": "2025-12-11T06:40:35.439744", "MEAN_MOTION": 14.17968186, "ECCENTRICITY": 0.01168868, "INCLINATION": 98.445, "RA_OF_ASC_NODE": 239.6594, "ARG_OF_PERICENTER": 147.0789, "MEAN_ANOMALY": 340.6978, "EPHEMERIS_TYPE": 0, "CLASSIFICATION_TYPE": "U", "NORAD_CAT_ID": 30327, "ELEMENT_SET_NO": 999, "REV_AT_EPOCH": 96422, "BSTAR": 0.0025913683, "MEAN_MOTION_DOT": 5.637e-05, "MEAN_MOTION_DDOT": 0}, "tle": {"line1": "1 30327U 99025AAN 25345.27818796  .00005637  00000+0  25914-2 0  9990", "line2": "2 30327  98.4450 239.6594 0116886 147.0789 340.6978 14.17968186964222"}}, "geometry": {"type": "Point", "coordinates": [68.38341521804126, 41.854618137225145]}}, {"type": "Feature", "properties": {"norad_id": 30328, "name": "FENGYUN 1C DEB", "group": "fengyun-1c-debris", "lat": -59.32113034834787, "lon": 11.472881299166938, "alt_km": 861.4596862417129, "timestamp": "2025-12-12T09:49:09.007087+00:00", "meta": {"OBJECT_NAME": "FENGYUN 1C DEB", "OBJECT_ID": "1999-025AAP", "EPOCH": "2025-12-12T00:09:47.203776", "MEAN_MOTION": 14.12473128, "ECCENTRICITY": 0.000574, "INCLINATION": 98.6865, "RA_OF_ASC_NODE": 356.1498, "ARG_OF_PERICENTER": 154.562, "MEAN_ANOMALY": 260.309, "EPHEMERIS_TYPE": 0, "CLASSIFICATION_TYPE": "U", "NORAD_CAT_ID": 30328, "ELEMENT_SET_NO": 999, "REV_AT_EPOCH": 97254, "BSTAR": 0.00018557, "MEAN_MOTION_DOT": 3e-06, "MEAN_MOTION_DDOT": 0}, "tle": {"line1": "1 30328U 99025AAP 25346.00679634  .00000300  00000+0  18557-3 0  9997", "line2": "2 30328  98.6865 356.1498 0005740 154.5620 260.3090 14.12473128972545"}}, "geometry": {"type": "Point", "coordinates": [11.472881299166938, -59.32113034834787]}}, {"type": "Feature", "properties": {"norad_id": 30329, "name": "FENGYUN 1C DEB", "group": "fengyun-1c-debris", "lat": 22.223639732509955, "lon": -98.03720692720245, "alt_km": 838.3748809891795, "timestamp": "2025-12-12T09:49:09.007098+00:00", "meta": {"OBJECT_NAME": "FENGYUN 1C DEB", "OBJECT_ID": "1999-025AAQ", "EPOCH": "2025-12-11T18:15:16.458624", "MEAN_MOTION": 13.86739606, "ECCENTRICITY": 0.01423572, "INCLINATION": 99.2617, "RA_OF_ASC_NODE": 265.1433, "ARG_OF_PERICENTER": 38.1331, "MEAN_ANOMALY": 349.019, "EPHEMERIS_TYPE": 0, "CLASSIFICATION_TYPE": "U", "NORAD_CAT_ID": 30329, "ELEMENT_SET_NO": 999, "REV_AT_EPOCH": 95397, "BSTAR": 0.00066895111, "MEAN_MOTION_DOT": 8e-06, "MEAN_MOTION_DDOT": 0}, "tle": {"line1": "1 30329U 99025AAQ 25345.76060716  .00000800  00000+0  66895-3 0  9998", "line2": "2 30329  99.2617 265.1433 0142357  38.1331 349.0190 13.86739606953976"}}, "geometry": {"type": "Point", "coordinates": [-98.03720692720245, 22.223639732509955]}}, {"type": "Feature", "properties": {"norad_id": 30330, "name": "FENGYUN 1C DEB", "group": "fengyun-1c-debris", "lat": 60.58534009609559, "lon": -37.32680028657367, "alt_km": 1025.3978158483405, "timestamp": "2025-12-12T09:49:09.007108+00:00", "meta": {"OBJECT_NAME": "FENGYUN 1C DEB", "OBJECT_ID": "1999-025AAR", "EPOCH": "2025-12-11T21:39:34.786080", "MEAN_MOTION": 13.820553, "ECCENTRICITY": 0.0187584, "INCLINATION": 98.8864, "RA_OF_ASC_NODE": 338.3056, "ARG_OF_PERICENTER": 187.0498, "MEAN_ANOMALY": 237.2414, "EPHEMERIS_TYPE": 0, "CLASSIFICATION_TYPE": "U", "NORAD_CAT_ID": 30330, "ELEMENT_SET_NO": 999, "REV_AT_EPOCH": 94646, "BSTAR": 0.0017362, "MEAN_MOTION_DOT": 2.095e-05, "MEAN_MOTION_DDOT": 0}, "tle": {"line1": "1 30330U 99025AAR 25345.90248595  .00002095  00000+0  17362-2 0  9991", "line2": "2 30330  98.8864 338.3056 0187584 187.0498 237.2414 13.82055300946461"}}, "geometry": {"type": "Point", "coordinates": [-37.32680028657367, 60.58534009609559]}}, {"type": "Feature", "properties": {"norad_id": 30331, "name": "FENGYUN 1C DEB", "group": "fengyun-1c-debris", "lat": -80.42561355067811, "lon": 90.21835467289348, "alt_km": 914.6935351673719, "timestamp": "2025-12-12T09:49:09.007118+00:00", "meta": {"OBJECT_NAME": "FENGYUN 1C DEB", "OBJECT_ID": "1999-025AAS", "EPOCH": "2025-12-12T01:53:49.663392", "MEAN_MOTION": 13.97828562, "ECCENTRICITY": 0.00964, "INCLINATION": 98.9568, "RA_OF_ASC_NODE": 20.6716, "ARG_OF_PERICENTER": 9.7953, "MEAN_ANOMALY": 44.5565, "EPHEMERIS_TYPE": 0, "CLASSIFICATION_TYPE": "U", "NORAD_CAT_ID": 30331, "ELEMENT_SET_NO": 999, "REV_AT_EPOCH": 96110, "BSTAR": 0.00053011, "MEAN_MOTION_DOT": 7.37e-06, "MEAN_MOTION_DDOT": 0}, "tle": {"line1": "1 30331U 99025AAS 25346.07904703  .00000737  00000+0  53011-3 0  9994", "line2": "2 30331  98.9568  20.6716 0096400   9.7953  44.5565 13.97828562961108"}}, "geometry": {"type": "Point", "coordinates": [90.21835467289348, -80.42561355067811]}}]}